{
  "norad_id": 58358,
  "name": "STARLINK-30858",
  "history": [
    {
      "epoch": "2026-03-28T17:39:12.302784Z",
      "apogee_km": 483.70438017151173,
      "perigee_km": 482.29716081478364,
      "latitude_deg": 2.793650942803471e-06,
      "longitude_deg": 151.79650542460203,
      "height_km": 482.69113412129815,
      "semi_major_axis_km": 6861.137770493147,
      "eccentricity": 0.00010255,
      "inclination_deg": 43.0004,
      "raan_deg": 242.7495,
      "arg_perigee_deg": 277.0261,
      "mean_anomaly_deg": 83.0474,
      "mean_motion_rev_day": 15.27596139
    }
  ]
}